0 ODIN
1 26702U 01007A   17280.96018956 +.00000055 +00000-0 +77803-5 0  9997
2 26702 097.6071 296.7658 0011766 035.5425 324.6584 15.07296675908037
